SBSS (USA 216)          
1 37168U 10048A   26068.88624904  .00004946  00000+0  24191-3 0  9993
2 37168  97.7474 312.3885 0082264 184.8326 306.5835 15.15724210837421
STARLINK-4712           
1 53798U 22111AB  26068.83469777  .00000102  00000+0  24526-4 0  9997
2 53798  53.2164 273.0742 0001649  73.7548 286.3625 15.08839450193709
