[{"OBJECT_NAME":"SBSS (USA 216)","OBJECT_ID":"2010-048A","EPOCH":"2026-03-09T21:16:11.917056","MEAN_MOTION":15.1572421,"ECCENTRICITY":0.0082264,"INCLINATION":97.7474,"RA_OF_ASC_NODE":312.3885,"ARG_OF_PERICENTER":184.8326,"MEAN_ANOMALY":306.5835,"EPHEMERIS_TYPE":0,"CLASSIFICATION_TYPE":"U","NORAD_CAT_ID":37168,"ELEMENT_SET_NO":999,"REV_AT_EPOCH":83742,"BSTAR":0.00024191,"MEAN_MOTION_DOT":4.946e-5,"MEAN_MOTION_DDOT":0},{"OBJECT_NAME":"STARLINK-4712","OBJECT_ID":"2022-111AB","EPOCH":"2026-03-09T20:01:57.887328","MEAN_MOTION":15.0883945,"ECCENTRICITY":0.00016485,"INCLINATION":53.2164,"RA_OF_ASC_NODE":273.0742,"ARG_OF_PERICENTER":73.7548,"MEAN_ANOMALY":286.3625,"EPHEMERIS_TYPE":0,"CLASSIFICATION_TYPE":"U","NORAD_CAT_ID":53798,"ELEMENT_SET_NO":999,"REV_AT_EPOCH":19370,"BSTAR":2.4526413e-5,"MEAN_MOTION_DOT":1.02e-6,"MEAN_MOTION_DDOT":0}]
